GLOBALSTAR M045         
1 25676U 99019A   24303.90457253 -.00000098  00000+0 -42210-4 0  9992
2 25676  51.9967 241.6180 0000875  74.1945 354.6050 12.27048033165125
GLOBALSTAR M019         
1 25677U 99019B   24304.10686853  .00000064  00000+0  16059-2 0  9997
2 25677  51.9908 355.2177 0001059 196.1146 179.2920 12.13867242157395
GLOBALSTAR M044         
1 25678U 99019C   24304.23712573 -.00000040  00000+0  61055-3 0  9993
2 25678  51.9964 277.4490 0006562 321.8627  52.4293 11.90245372143923
GLOBALSTAR M042         
1 25679U 99019D   24304.15310976 -.00000017  00000+0  71121-3 0  9995
2 25679  52.0037 340.3416 0002914 178.0761 246.6427 12.22071972157204
GLOBALSTAR M025         
1 25770U 99031A   24303.52756612 -.00000023  00000+0  13621-2 0  9999
2 25770  51.9843 333.6117 0001616 116.2679  54.5902 11.22555281455802
GLOBALSTAR M049         
1 25771U 99031B   24303.89175301 -.00000046  00000+0  67518-3 0  9990
2 25771  51.9914 355.9565 0002941 355.6070   4.4700 11.12112210 91808
GLOBALSTAR M047         
1 25772U 99031C   24303.93099323 -.00000053  00000+0  45155-3 0  9996
2 25772  51.9873  14.8342 0016278 225.9444 134.0022 11.31924365445037
GLOBALSTAR M052         
1 25773U 99031D   24303.95875619 -.00000026  00000+0  13286-2 0  9998
2 25773  51.9836 107.7147 0003342 134.4711  37.3641 11.15055083452822
